CCSDS_OMM_VERS = 2.0
CREATION_DATE  = 
ORIGINATOR     = 

OBJECT_NAME    = HTV-X1
OBJECT_ID      = 2025-241A
CENTER_NAME    = EARTH
REF_FRAME      = TEME
TIME_SYSTEM    = UTC
MEAN_ELEMENT_THEORY = SGP/SGP4

EPOCH          = 2026-04-05T13:58:59.082528
MEAN_MOTION    = 15.32549807
ECCENTRICITY   = .00073678
INCLINATION    = 51.6364
RA_OF_ASC_NODE = 303.4264
ARG_OF_PERICENTER = 276.7302
MEAN_ANOMALY   = 83.2841

EPHEMERIS_TYPE = 0
CLASSIFICATION_TYPE = U
NORAD_CAT_ID   = 66174
ELEMENT_SET_NO = 999
REV_AT_EPOCH   = 2506
BSTAR          = .22482392E-3
MEAN_MOTION_DOT = .6811E-4
MEAN_MOTION_DDOT = 0

CCSDS_OMM_VERS = 2.0
CREATION_DATE  = 
ORIGINATOR     = 

OBJECT_NAME    = SZ-21 MODULE
OBJECT_ID      = 2025-246C
CENTER_NAME    = EARTH
REF_FRAME      = TEME
TIME_SYSTEM    = UTC
MEAN_ELEMENT_THEORY = SGP/SGP4

EPOCH          = 2026-04-05T13:00:16.474176
MEAN_MOTION    = 15.70809155
ECCENTRICITY   = .00035307
INCLINATION    = 41.4755
RA_OF_ASC_NODE = 37.8006
ARG_OF_PERICENTER = 233.2393
MEAN_ANOMALY   = 126.8126

EPHEMERIS_TYPE = 0
CLASSIFICATION_TYPE = U
NORAD_CAT_ID   = 66515
ELEMENT_SET_NO = 999
REV_AT_EPOCH   = 2229
BSTAR          = .35049122E-3
MEAN_MOTION_DOT = .4484E-3
MEAN_MOTION_DDOT = 0

CCSDS_OMM_VERS = 2.0
CREATION_DATE  = 
ORIGINATOR     = 

OBJECT_NAME    = SHENZHOU-22
OBJECT_ID      = 2025-272A
CENTER_NAME    = EARTH
REF_FRAME      = TEME
TIME_SYSTEM    = UTC
MEAN_ELEMENT_THEORY = SGP/SGP4

EPOCH          = 2026-04-05T07:47:20.916960
MEAN_MOTION    = 15.61942740
ECCENTRICITY   = .00035577
INCLINATION    = 41.4682
RA_OF_ASC_NODE = 45.9319
ARG_OF_PERICENTER = 129.2727
MEAN_ANOMALY   = 230.8429

EPHEMERIS_TYPE = 0
CLASSIFICATION_TYPE = U
NORAD_CAT_ID   = 66645
ELEMENT_SET_NO = 999
REV_AT_EPOCH   = 28115
BSTAR          = .37223139E-3
MEAN_MOTION_DOT = .33173E-3
MEAN_MOTION_DDOT = 0

CCSDS_OMM_VERS = 2.0
CREATION_DATE  = 
ORIGINATOR     = 

OBJECT_NAME    = SOYUZ-MS 28
OBJECT_ID      = 2025-275A
CENTER_NAME    = EARTH
REF_FRAME      = TEME
TIME_SYSTEM    = UTC
MEAN_ELEMENT_THEORY = SGP/SGP4

EPOCH          = 2026-04-05T13:16:46.804800
MEAN_MOTION    = 15.48786980
ECCENTRICITY   = .00063514
INCLINATION    = 51.6328
RA_OF_ASC_NODE = 299.5432
ARG_OF_PERICENTER = 274.8255
MEAN_ANOMALY   = 85.2008

EPHEMERIS_TYPE = 0
CLASSIFICATION_TYPE = U
NORAD_CAT_ID   = 66664
ELEMENT_SET_NO = 999
REV_AT_EPOCH   = 56050
BSTAR          = .16419769E-3
MEAN_MOTION_DOT = .8543E-4
MEAN_MOTION_DDOT = 0

CCSDS_OMM_VERS = 2.0
CREATION_DATE  = 
ORIGINATOR     = 

OBJECT_NAME    = DUPLEX
OBJECT_ID      = 1998-067XS
CENTER_NAME    = EARTH
REF_FRAME      = TEME
TIME_SYSTEM    = UTC
MEAN_ELEMENT_THEORY = SGP/SGP4

EPOCH          = 2026-04-05T06:50:09.612672
MEAN_MOTION    = 15.58054408
ECCENTRICITY   = .0003389
INCLINATION    = 51.6286
RA_OF_ASC_NODE = 296.2512
ARG_OF_PERICENTER = 238.8669
MEAN_ANOMALY   = 121.1991

EPHEMERIS_TYPE = 0
CLASSIFICATION_TYPE = U
NORAD_CAT_ID   = 66906
ELEMENT_SET_NO = 999
REV_AT_EPOCH   = 1927
BSTAR          = .45585E-3
MEAN_MOTION_DOT = .34554E-3
MEAN_MOTION_DDOT = 0

CCSDS_OMM_VERS = 2.0
CREATION_DATE  = 
ORIGINATOR     = 

OBJECT_NAME    = ISS OBJECT XT
OBJECT_ID      = 1998-067XT
CENTER_NAME    = EARTH
REF_FRAME      = TEME
TIME_SYSTEM    = UTC
MEAN_ELEMENT_THEORY = SGP/SGP4

EPOCH          = 2026-04-05T13:27:59.922144
MEAN_MOTION    = 15.80878139
ECCENTRICITY   = .00074646
INCLINATION    = 51.6217
RA_OF_ASC_NODE = 287.5441
ARG_OF_PERICENTER = 256.2998
MEAN_ANOMALY   = 103.7173

EPHEMERIS_TYPE = 0
CLASSIFICATION_TYPE = U
NORAD_CAT_ID   = 66907
ELEMENT_SET_NO = 999
REV_AT_EPOCH   = 1941
BSTAR          = .14686827E-2
MEAN_MOTION_DOT = .300489E-2
MEAN_MOTION_DDOT = 0

CCSDS_OMM_VERS = 2.0
CREATION_DATE  = 
ORIGINATOR     = 

OBJECT_NAME    = ISS OBJECT XU
OBJECT_ID      = 1998-067XU
CENTER_NAME    = EARTH
REF_FRAME      = TEME
TIME_SYSTEM    = UTC
MEAN_ELEMENT_THEORY = SGP/SGP4

EPOCH          = 2026-04-05T13:20:22.791840
MEAN_MOTION    = 15.81261870
ECCENTRICITY   = .00075765
INCLINATION    = 51.6221
RA_OF_ASC_NODE = 287.5051
ARG_OF_PERICENTER = 255.7016
MEAN_ANOMALY   = 104.3145

EPHEMERIS_TYPE = 0
CLASSIFICATION_TYPE = U
NORAD_CAT_ID   = 66908
ELEMENT_SET_NO = 999
REV_AT_EPOCH   = 1941
BSTAR          = .14908714E-2
MEAN_MOTION_DOT = .310882E-2
MEAN_MOTION_DDOT = 0

CCSDS_OMM_VERS = 2.0
CREATION_DATE  = 
ORIGINATOR     = 

OBJECT_NAME    = SILVERSAT
OBJECT_ID      = 1998-067XV
CENTER_NAME    = EARTH
REF_FRAME      = TEME
TIME_SYSTEM    = UTC
MEAN_ELEMENT_THEORY = SGP/SGP4

EPOCH          = 2026-04-05T13:00:23.126112
MEAN_MOTION    = 15.88922443
ECCENTRICITY   = .00093308
INCLINATION    = 51.6182
RA_OF_ASC_NODE = 285.8891
ARG_OF_PERICENTER = 262.9398
MEAN_ANOMALY   = 97.0546

EPHEMERIS_TYPE = 0
CLASSIFICATION_TYPE = U
NORAD_CAT_ID   = 66909
ELEMENT_SET_NO = 999
REV_AT_EPOCH   = 1943
BSTAR          = .17021307E-2
MEAN_MOTION_DOT = .493552E-2
MEAN_MOTION_DDOT = .10204584E-3

CCSDS_OMM_VERS = 2.0
CREATION_DATE  = 
ORIGINATOR     = 

OBJECT_NAME    = ISS OBJECT XW
OBJECT_ID      = 1998-067XW
CENTER_NAME    = EARTH
REF_FRAME      = TEME
TIME_SYSTEM    = UTC
MEAN_ELEMENT_THEORY = SGP/SGP4

EPOCH          = 2026-04-04T19:36:47.567808
MEAN_MOTION    = 15.78347512
ECCENTRICITY   = .00074492
INCLINATION    = 51.6195
RA_OF_ASC_NODE = 291.5715
ARG_OF_PERICENTER = 246.0581
MEAN_ANOMALY   = 113.9639

EPHEMERIS_TYPE = 0
CLASSIFICATION_TYPE = U
NORAD_CAT_ID   = 66910
ELEMENT_SET_NO = 999
REV_AT_EPOCH   = 1929
BSTAR          = .12620228E-2
MEAN_MOTION_DOT = .228077E-2
MEAN_MOTION_DDOT = 0

CCSDS_OMM_VERS = 2.0
CREATION_DATE  = 
ORIGINATOR     = 

OBJECT_NAME    = ISS OBJECT XX
OBJECT_ID      = 1998-067XX
CENTER_NAME    = EARTH
REF_FRAME      = TEME
TIME_SYSTEM    = UTC
MEAN_ELEMENT_THEORY = SGP/SGP4

EPOCH          = 2026-04-05T13:35:47.572512
MEAN_MOTION    = 16.01150374
ECCENTRICITY   = .00119207
INCLINATION    = 51.6137
RA_OF_ASC_NODE = 283.7512
ARG_OF_PERICENTER = 271.0584
MEAN_ANOMALY   = 88.9060

EPHEMERIS_TYPE = 0
CLASSIFICATION_TYPE = U
NORAD_CAT_ID   = 66911
ELEMENT_SET_NO = 999
REV_AT_EPOCH   = 1945
BSTAR          = .19309668E-2
MEAN_MOTION_DOT = .1084266E-1
MEAN_MOTION_DDOT = .60875238E-3

CCSDS_OMM_VERS = 2.0
CREATION_DATE  = 
ORIGINATOR     = 

OBJECT_NAME    = ISS OBJECT XY
OBJECT_ID      = 1998-067XY
CENTER_NAME    = EARTH
REF_FRAME      = TEME
TIME_SYSTEM    = UTC
MEAN_ELEMENT_THEORY = SGP/SGP4

EPOCH          = 2026-04-05T13:36:31.104288
MEAN_MOTION    = 15.69752347
ECCENTRICITY   = .00052066
INCLINATION    = 51.6244
RA_OF_ASC_NODE = 290.6177
ARG_OF_PERICENTER = 249.4061
MEAN_ANOMALY   = 110.6378

EPHEMERIS_TYPE = 0
CLASSIFICATION_TYPE = U
NORAD_CAT_ID   = 66912
ELEMENT_SET_NO = 999
REV_AT_EPOCH   = 1936
BSTAR          = .10619154E-2
MEAN_MOTION_DOT = .130613E-2
MEAN_MOTION_DDOT = 0

CCSDS_OMM_VERS = 2.0
CREATION_DATE  = 
ORIGINATOR     = 

OBJECT_NAME    = KNACKSAT-2
OBJECT_ID      = 1998-067XZ
CENTER_NAME    = EARTH
REF_FRAME      = TEME
TIME_SYSTEM    = UTC
MEAN_ELEMENT_THEORY = SGP/SGP4

EPOCH          = 2026-04-05T13:28:54.264288
MEAN_MOTION    = 15.54221784
ECCENTRICITY   = .00108174
INCLINATION    = 51.6318
RA_OF_ASC_NODE = 298.1018
ARG_OF_PERICENTER = 285.0563
MEAN_ANOMALY   = 74.9230

EPHEMERIS_TYPE = 0
CLASSIFICATION_TYPE = U
NORAD_CAT_ID   = 67683
ELEMENT_SET_NO = 999
REV_AT_EPOCH   = 896
BSTAR          = .70083459E-3
MEAN_MOTION_DOT = .46448E-3
MEAN_MOTION_DDOT = 0

